0 FENGYUN 1C DEB
1 31174U 99025BJC 13280.59625383  .00003851  00000-0  19574-2 0  9575
2 31174 099.0585 321.6927 0025388 136.4377 017.0421 14.16314798334213
0 FENGYUN 1C DEB
1 31174U 99025BJC 13282.92184147  .00004902  00000-0  24839-2 0  9581
2 31174 099.0593 324.0578 0025175 130.5209 354.0107 14.16338031334541
0 FENGYUN 1C DEB
1 31174U 99025BJC 13284.89963314  .00004044  00000-0  20531-2 0  9593
2 31174 099.0597 326.0696 0025016 125.4358 357.9456 14.16352430334829
0 FENGYUN 1C DEB
1 31174U 99025BJC 13286.08209493  .00004607  00000-0  23352-2 0  9608
2 31174 099.0601 327.2729 0024767 122.6062 266.6688 14.16362642334995
0 FENGYUN 1C DEB
1 31174U 99025BJC 13287.59139524  .00005977  00000-0  30217-2 0  9612
2 31174 099.0603 328.8086 0024555 118.6893 042.1229 14.16375298335206
0 FENGYUN 1C DEB
1 31174U 99025BJC 13288.92637997  .00006140  00000-0  31021-2 0  9625
2 31174 099.0604 330.1667 0024366 115.0578 009.0419 14.16392078335397
0 FENGYUN 1C DEB
1 31174U 99025BJC 13290.32665630  .00005943  00000-0  30030-2 0  9637
2 31174 099.0598 331.5916 0024179 111.4115 308.7849 14.16405212335593
0 FENGYUN 1C DEB
1 31174U 99025BJC 13292.09181066  .00005083  00000-0  25715-2 0  9649
2 31174 099.0592 333.3877 0023893 106.8033 309.0834 14.16422449335849
0 FENGYUN 1C DEB
1 31174U 99025BJC 13293.36352030  .00005896  00000-0  29783-2 0  9653
2 31174 099.0592 334.6814 0023680 103.4260 313.4923 14.16433183336029
0 FENGYUN 1C DEB
1 31174U 99025BJC 13294.58486737  .00006334  00000-0  31971-2 0  9661
2 31174 099.0594 335.9239 0023521 100.0936 061.2370 14.16445426336198
